OBJECT_NAME,OBJECT_ID,EPOCH,MEAN_MOTION,ECCENTRICITY,INCLINATION,RA_OF_ASC_NODE,ARG_OF_PERICENTER,MEAN_ANOMALY,EPHEMERIS_TYPE,CLASSIFICATION_TYPE,NORAD_CAT_ID,ELEMENT_SET_NO,REV_AT_EPOCH,BSTAR,MEAN_MOTION_DOT,MEAN_MOTION_DDOT
LUDI TANCE 1-01A (L-SAR 01A),2022-007A,2026-06-12T00:06:43.131168,14.88415580,.000161,97.8098,170.4982,90.9827,269.1574,0,U,51284,999,23770,.59216508E-4,.495E-5,0
LUDI TANCE 1-01B (L-SAR 01B),2022-018A,2026-06-11T23:18:17.589024,14.88411779,.00015824,97.8102,170.4612,91.2567,268.8831,0,U,51822,999,23293,.6429443E-4,.542E-5,0
2022-019D,2022-019D,2026-06-11T23:06:49.794912,15.70287784,.00056566,97.3665,255.1655,157.3499,202.8014,0,U,51827,999,23888,.60837037E-3,.74332E-3,0
2022-019J,2022-019J,2026-06-11T22:35:44.882016,15.20416085,.00069839,97.3435,225.8870,243.3241,116.7280,0,U,51832,999,23700,.69908635E-4,.1457E-4,0
2022-023F,2022-023F,2026-06-11T22:33:56.458656,15.17948268,.01293885,63.4452,291.3185,342.6138,17.0563,0,U,51951,999,23691,.54007671E-3,.13507E-3,0
CZ-4C R/B,2022-027B,2026-06-11T23:06:14.985216,13.65479746,.02321103,63.3942,72.8325,22.6405,338.4672,0,U,52085,999,21132,.33602258E-4,-.62E-6,0
MERIDIAN 10,2022-030A,2026-06-11T11:41:25.319040,2.00614267,.67821757,62.6777,141.4098,272.8584,17.6673,0,U,52145,999,3091,0,.24E-5,0
OMNI-L1,2022-033A,2026-06-11T17:06:14.401152,14.82728671,.00039878,97.8396,241.9962,312.4408,47.6468,0,U,52157,999,22664,.21134402E-3,.1654E-4,0
ENMAP,2022-033C,2026-06-11T22:36:23.075136,14.74984053,.00013961,97.9791,245.2661,84.3791,275.7577,0,U,52159,999,22588,.85322486E-4,.524E-5,0
ARCSAT-1,2022-033E,2026-06-11T18:42:23.868288,15.53497950,.00044037,97.2755,254.9727,201.0343,159.0730,0,U,52161,999,23486,.2023666E-3,.12756E-3,0
GLOBAL-18,2022-034B,2026-06-11T15:09:07.298208,15.46043673,.0003087,52.9819,283.1883,249.2112,110.8562,0,U,52196,999,23610,.45571E-3,.22262E-3,0
GAOFEN-3 03,2022-035A,2026-06-11T22:57:59.786208,14.42213961,.00011782,98.4064,171.6129,100.3611,259.7711,0,U,52200,999,22009,-.28125829E-4,-.136E-5,0
DAQI-1,2022-039A,2026-06-11T22:17:02.080320,14.57674254,.00022863,98.1477,101.8891,279.9373,80.1568,0,U,52257,999,22117,.37384958E-4,.126E-5,0
BRO-6,2022-047AE,2026-06-11T23:23:03.898752,15.50196194,.00054642,97.3401,253.9306,95.7983,264.3892,0,U,52422,999,23034,.62459733E-3,.35276E-3,0
JILIN-1 GAOFEN 3D27,2022-048B,2026-06-11T22:40:09.559776,15.74144187,.00014905,97.5703,276.4095,69.5239,290.6185,0,U,52444,999,22865,.77017275E-3,.11114E-2,0
JILIN-1 GAOFEN 3D28,2022-048C,2026-06-11T21:21:56.288448,15.76975417,.00010538,97.5639,276.4796,151.8805,208.2518,0,U,52445,999,22869,.76132503E-3,.124424E-2,0
VIGORIDE-3,2022-057AE,2026-06-11T21:49:54.179904,15.27224775,.00093353,97.6591,302.7446,136.7135,223.4838,0,U,52760,999,22435,.19113353E-3,.5027E-4,0
ION SCV-006,2022-057AF,2026-06-11T22:04:23.446848,15.45160380,.00182568,97.6086,311.2900,131.4365,228.8455,0,U,52761,999,22530,.25731819E-3,.12182E-3,0
SHERPA-AC1,2022-057AH,2026-06-11T22:06:26.190144,15.36192734,.00089387,97.6674,311.9288,109.2507,250.9704,0,U,52763,999,22489,.19925463E-3,.6949E-4,0
OMNI-L2,2022-057AR,2026-06-11T15:37:46.528608,14.81356282,.00062746,97.4717,225.3816,356.8374,3.2799,0,U,52771,999,21957,.1597907E-3,.1201E-4,0
STEP CUBE LAB-II,2022-065D,2026-06-11T22:32:17.783808,14.63295736,.00096226,98.2217,306.8573,47.3059,312.8951,0,U,52897,999,21073,.16211898E-3,.789E-5,0
RANDEV,2022-065E,2026-06-11T22:35:50.656128,14.63682259,.0008941,98.2203,307.2091,47.9693,312.2269,0,U,52898,999,21048,.14213665E-3,.692E-5,0
SNUGLITE-II,2022-065F,2026-06-11T21:44:59.748576,14.64338012,.00083145,98.2195,307.7464,48.0701,312.1209,0,U,52899,999,21022,.15857576E-3,.789E-5,0
MIMAN,2022-065G,2026-06-11T08:48:41.925024,14.61837820,.0008546,98.2253,304.8791,51.2785,308.9179,0,U,52900,999,20959,.98803E-4,.446E-5,0
STARLINK-4362,2022-077A,2026-06-11T22:46:29.812224,15.05651620,.00017608,97.3735,342.1348,82.7667,277.3761,0,U,53043,999,21509,.22384136E-4,.265E-5,0
LARES-2,2022-080A,2026-06-11T09:04:16.246848,6.38965132,.0005423,70.1631,307.3215,335.1501,24.8749,0,U,53105,999,9129,0,-.14E-6,0
GREENCUBE (IO-117),2022-080E,2026-06-01T11:09:37.753056,6.42583280,.00088692,70.1435,303.7143,293.3663,66.6064,0,U,53109,999,9105,0,-.3E-7,0
STARLINK-4410,2022-084R,2026-06-12T00:00:02.999808,15.28724379,.00013957,97.6017,223.9668,85.4625,22.6195,0,U,53204,999,583,.27743427E-2,.78129E-3,0
COSMOS 2558,2022-089A,2026-06-11T19:23:54.644640,15.74063350,.0000708,97.2252,266.6576,215.7963,144.3254,0,U,53323,999,21698,.67404E-3,.96743E-3,0
TECMS,2022-090A,2026-06-11T23:06:45.892224,15.21371138,.0002889,97.3144,231.2194,193.2280,166.8881,0,U,53346,999,21401,.14858642E-3,.3263E-4,0
