{"_default": { "268": {"norad_id": "52761", "name": "ION SCV-006", "tle1": "1 52761U 22057AF  26162.91971582  .00012182  00000-0  25732-3 0  9992", "tle2": "2 52761  97.6086 311.2900 0018257 131.4365 228.8455 15.45160380225300", "object_type": "PAYLOAD", "criticality_score": 7.0, "last_updated": "2026-06-12T12:52:23.908888+00:00", "maneuver_count": 0, "owner": "N/A"}, "275": {"norad_id": "52763", "name": "SHERPA-AC1", "tle1": "1 52763U 22057AH  26162.92113646  .00006949  00000-0  19925-3 0  9995", "tle2": "2 52763  97.6674 311.9288 0008939 109.2507 250.9704 15.36192734224892", "object_type": "PAYLOAD", "criticality_score": 7.0, "last_updated": "2026-06-12T12:52:23.908888+00:00", "maneuver_count": 0, "owner": "N/A"}, "279": {"norad_id": "52771", "name": "OMNI-L2", "tle1": "1 52771U 22057AR  26162.65123297  .00001201  00000-0  15979-3 0  9998", "tle2": "2 52771  97.4717 225.3816 0006275 356.8374   3.2799 14.81356282219576", "object_type": "PAYLOAD", "criticality_score": 7.0, "last_updated": "2026-06-12T12:52:23.908888+00:00", "maneuver_count": 0, "owner": "N/A"}, "280": {"norad_id": "52422", "name": "BRO-6", "tle1": "1 52422U 22047AE  26162.97435068  .00035276  00000-0  62460-3 0  9993", "tle2": "2 52422  97.3401 253.9306 0005464  95.7983 264.3892 15.50196194230346", "object_type": "PAYLOAD", "criticality_score": 7.0, "last_updated": "2026-06-12T12:52:23.908888+00:00", "maneuver_count": 0, "owner": "N/A"}, "296": {"norad_id": "52897", "name": "STEP CUBE LAB-II", "tle1": "1 52897U 22065D   26162.93909472  .00000789  00000-0  16212-3 0  9995", "tle2": "2 52897  98.2217 306.8573 0009623  47.3059 312.8951 14.63295736210730", "object_type": "PAYLOAD", "criticality_score": 7.0, "last_updated": "2026-06-12T12:52:23.908888+00:00", "maneuver_count": 0, "owner": "N/A"}, "297": {"norad_id": "52898", "name": "RANDEV", "tle1": "1 52898U 22065E   26162.94155852  .00000692  00000-0  14214-3 0  9995", "tle2": "2 52898  98.2203 307.2091 0008941  47.9693 312.2269 14.63682259210486", "object_type": "PAYLOAD", "criticality_score": 7.0, "last_updated": "2026-06-12T12:52:23.908888+00:00", "maneuver_count": 0, "owner": "N/A"}, "298": {"norad_id": "52899", "name": "SNUGLITE-II", "tle1": "1 52899U 22065F   26162.90624709  .00000789  00000-0  15858-3 0  9996", "tle2": "2 52899  98.2195 307.7464 0008314  48.0701 312.1209 14.64338012210223", "object_type": "PAYLOAD", "criticality_score": 7.0, "last_updated": "2026-06-12T12:52:23.908888+00:00", "maneuver_count": 0, "owner": "N/A"}, "301": {"norad_id": "52900", "name": "MIMAN", "tle1": "1 52900U 22065G   26162.36715191  .00000446  00000-0  98803-4 0  9997", "tle2": "2 52900  98.2253 304.8791 0008546  51.2785 308.9179 14.61837820209592", "object_type": "PAYLOAD", "criticality_score": 7.0, "last_updated": "2026-06-12T12:52:23.908888+00:00", "maneuver_count": 0, "owner": "N/A"}, "308": {"norad_id": "53109", "name": "AVUM R/B", "tle1": "1 53109U 22080E   26152.46502029 -.00000003  00000-0  00000-0 0  9998", "tle2": "2 53109  70.1435 303.7143 0008869 293.3663  66.6064  6.42583280 91055", "object_type": "ROCKET_BODY", "criticality_score": 3.0, "last_updated": "2026-06-12T12:52:23.908888+00:00", "maneuver_count": 0, "owner": "N/A"}, "313": {"norad_id": "53105", "name": "LARES-2", "tle1": "1 53105U 22080A   26162.37796582 -.00000014  00000-0  00000+0 0  9995", "tle2": "2 53105  70.1631 307.3215 0005423 335.1501  24.8749  6.38965132 91295", "object_type": "PAYLOAD", "criticality_score": 7.0, "last_updated": "2026-06-12T12:52:23.908888+00:00", "maneuver_count": 0, "owner": "N/A"}, "314": {"norad_id": "52760", "name": "VIGORIDE 3", "tle1": "1 52760U 22057AE  26162.90965486  .00005027  00000-0  19113-3 0  9992", "tle2": "2 52760  97.6591 302.7446 0009335 136.7135 223.4838 15.27224775224359", "object_type": "PAYLOAD", "criticality_score": 7.0, "last_updated": "2026-06-12T12:52:23.908888+00:00", "maneuver_count": 0, "owner": "N/A"}, "325": {"norad_id": "52157", "name": "OMNI-L1", "tle1": "1 52157U 22033A   26162.71266668  .00001654  00000-0  21134-3 0  9999", "tle2": "2 52157  97.8396 241.9962 0003988 312.4408  47.6468 14.82728671226648", "object_type": "PAYLOAD", "criticality_score": 7.0, "last_updated": "2026-06-12T12:52:23.908888+00:00", "maneuver_count": 0, "owner": "N/A"}, "329": {"norad_id": "53204", "name": "STARLINK-4410", "tle1": "1 53204U 22084R   26163.00003472  .00078129  00000-0  27743-2 0  9996", "tle2": "2 53204  97.6017 223.9668 0001396  85.4625  22.6195 15.28724379  5830", "object_type": "PAYLOAD", "criticality_score": 8.0, "last_updated": "2026-06-12T12:52:23.908888+00:00", "maneuver_count": 0, "owner": "N/A"}, "332": {"norad_id": "53043", "name": "STARLINK-4362", "tle1": "1 53043U 22077A   26162.94895616  .00000265  00000-0  22384-4 0  9994", "tle2": "2 53043  97.3735 342.1348 0001761  82.7667 277.3761 15.05651620215098", "object_type": "PAYLOAD", "criticality_score": 8.0, "last_updated": "2026-06-12T12:52:23.908888+00:00", "maneuver_count": 0, "owner": "N/A"}, "338": {"norad_id": "51827", "name": "OBJECT D", "tle1": "1 51827U 22019D   26162.96307633  .00074332  00000-0  60837-3 0  9997", "tle2": "2 51827  97.3665 255.1655 0005657 157.3499 202.8014 15.70287784238886", "object_type": "PAYLOAD", "criticality_score": 7.0, "last_updated": "2026-06-12T12:52:23.908888+00:00", "maneuver_count": 0, "owner": "N/A"}, "402": {"norad_id": "52085", "name": "CZ-4C R/B", "tle1": "1 52085U 22027B   26162.96267344 -.00000062  00000-0  33602-4 0  9998", "tle2": "2 52085  63.3942  72.8325 0232110  22.6405 338.4672 13.65479746211328", "object_type": "ROCKET_BODY", "criticality_score": 3.0, "last_updated": "2026-06-12T12:52:23.908888+00:00", "maneuver_count": 0, "owner": "N/A"}, "415": {"norad_id": "51284", "name": "LT-1 01A", "tle1": "1 51284U 22007A   26163.00466587  .00000495  00000-0  59217-4 0  9991", "tle2": "2 51284  97.8098 170.4982 0001610  90.9827 269.1574 14.88415580237704", "object_type": "PAYLOAD", "criticality_score": 7.0, "last_updated": "2026-06-12T12:52:23.908888+00:00", "maneuver_count": 0, "owner": "N/A"}, "426": {"norad_id": "52161", "name": "ARCSAT-1", "tle1": "1 52161U 22033E   26162.77944292  .00012756  00000-0  20237-3 0  9994", "tle2": "2 52161  97.2755 254.9727 0004404 201.0343 159.0730 15.53497950234869", "object_type": "PAYLOAD", "criticality_score": 7.0, "last_updated": "2026-06-12T12:52:23.908888+00:00", "maneuver_count": 0, "owner": "N/A"}, "430": {"norad_id": "51832", "name": "OBJECT J", "tle1": "1 51832U 22019J   26162.94149169  .00001457  00000-0  69909-4 0  9997", "tle2": "2 51832  97.3435 225.8870 0006984 243.3241 116.7280 15.20416085237009", "object_type": "PAYLOAD", "criticality_score": 7.0, "last_updated": "2026-06-12T12:52:23.908888+00:00", "maneuver_count": 0, "owner": "N/A"}, "439": {"norad_id": "52196", "name": "GLOBAL-18", "tle1": "1 52196U 22034B   26162.63133447  .00022262  00000-0  45571-3 0  9991", "tle2": "2 52196  52.9819 283.1883 0003087 249.2112 110.8562 15.46043673236105", "object_type": "PAYLOAD", "criticality_score": 7.0, "last_updated": "2026-06-12T12:52:23.908888+00:00", "maneuver_count": 0, "owner": "N/A"}, "441": {"norad_id": "53346", "name": "OBJECT A", "tle1": "1 53346U 22090A   26162.96303116  .00003263  00000-0  14859-3 0  9994", "tle2": "2 53346  97.3144 231.2194 0002889 193.2280 166.8881 15.21371138214013", "object_type": "PAYLOAD", "criticality_score": 7.0, "last_updated": "2026-06-12T12:52:23.908888+00:00", "maneuver_count": 0, "owner": "N/A"}, "456": {"norad_id": "52445", "name": "JILIN-01 GAOFEN 3D 28", "tle1": "1 52445U 22048C   26162.89023482  .00124424  00000-0  76133-3 0  9999", "tle2": "2 52445  97.5639 276.4796 0001054 151.8805 208.2518 15.76975417228695", "object_type": "PAYLOAD", "criticality_score": 7.0, "last_updated": "2026-06-12T12:52:23.908888+00:00", "maneuver_count": 0, "owner": "N/A"}, "457": {"norad_id": "52444", "name": "JILIN-01 GAOFEN 3D 27", "tle1": "1 52444U 22048B   26162.94455509  .00111140  00000-0  77017-3 0  9996", "tle2": "2 52444  97.5703 276.4095 0001490  69.5239 290.6185 15.74144187228659", "object_type": "PAYLOAD", "criticality_score": 7.0, "last_updated": "2026-06-12T12:52:23.908888+00:00", "maneuver_count": 0, "owner": "N/A"}, "483": {"norad_id": "52159", "name": "ENMAP", "tle1": "1 52159U 22033C   26162.94193374  .00000524  00000-0  85322-4 0  9994", "tle2": "2 52159  97.9791 245.2661 0001396  84.3791 275.7577 14.74984053225883", "object_type": "PAYLOAD", "criticality_score": 7.0, "last_updated": "2026-06-12T12:52:23.908888+00:00", "maneuver_count": 0, "owner": "N/A"}, "484": {"norad_id": "51951", "name": "OBJECT F", "tle1": "1 51951U 22023F   26162.94023679  .00013507  00000-0  54008-3 0  9993", "tle2": "2 51951  63.4452 291.3185 0129389 342.6138  17.0563 15.17948268236919", "object_type": "PAYLOAD", "criticality_score": 7.0, "last_updated": "2026-06-12T12:52:23.908888+00:00", "maneuver_count": 0, "owner": "N/A"}, "501": {"norad_id": "51822", "name": "LT-1 01B", "tle1": "1 51822U 22018A   26162.97103691  .00000542  00000-0  64294-4 0  9994", "tle2": "2 51822  97.8102 170.4612 0001582  91.2567 268.8831 14.88411779232939", "object_type": "PAYLOAD", "criticality_score": 7.0, "last_updated": "2026-06-12T12:52:23.908888+00:00", "maneuver_count": 0, "owner": "N/A"}, "513": {"norad_id": "52257", "name": "DAQI 1", "tle1": "1 52257U 22039A   26162.92849630  .00000126  00000-0  37385-4 0  9994", "tle2": "2 52257  98.1477 101.8891 0002286 279.9373  80.1568 14.57674254221171", "object_type": "PAYLOAD", "criticality_score": 7.0, "last_updated": "2026-06-12T12:52:23.908888+00:00", "maneuver_count": 0, "owner": "N/A"}, "569": {"norad_id": "53323", "name": "COSMOS 2558", "tle1": "1 53323U 22089A   26162.80827135  .00096743  00000-0  67404-3 0  9991", "tle2": "2 53323  97.2252 266.6576 0000708 215.7963 144.3254 15.74063350216984", "object_type": "PAYLOAD", "criticality_score": 7.0, "last_updated": "2026-06-12T12:52:23.908888+00:00", "maneuver_count": 0, "owner": "N/A"}, "577": {"norad_id": "52200", "name": "GAOFEN 3 03", "tle1": "1 52200U 22035A   26162.95694197 -.00000136  00000-0 -28126-4 0  9993", "tle2": "2 52200  98.4064 171.6129 0001178 100.3611 259.7711 14.42213961220096", "object_type": "PAYLOAD", "criticality_score": 7.0, "last_updated": "2026-06-12T12:52:23.908888+00:00", "maneuver_count": 0, "owner": "N/A"}, "662": {"norad_id": "52145", "name": "MERIDIAN 10", "tle1": "1 52145U 22030A   26162.48709860  .00000240  00000-0  00000-0 0  9999", "tle2": "2 52145  62.6777 141.4098 6782176 272.8584  17.6673  2.00614267 30915", "object_type": "PAYLOAD", "criticality_score": 7.0, "last_updated": "2026-06-12T12:52:23.908888+00:00", "maneuver_count": 0, "owner": "N/A"}}}